{"type": "FeatureCollection", "features": [ {"type": "Feature", "properties": {"norad_id": 38755, "name": "SPOT 6", "group": "resource", "lat": -5.876438072472975, "lon": 48.93322578396021, "alt_km": 701.5666948492635, "timestamp": "2025-12-09T05:43:20.384656+00:00", "meta": {"OBJECT_NAME": "SPOT 6", "OBJECT_ID": "2012-047A", "EPOCH": "2025-12-08T19:52:16.031712", "MEAN_MOTION": 14.58597131, "ECCENTRICITY": 0.0001093, "INCLINATION": 98.1576, "RA_OF_ASC_NODE": 47.6844, "ARG_OF_PERICENTER": 96.1131, "MEAN_ANOMALY": 264.0193, "EPHEMERIS_TYPE": 0, "CLASSIFICATION_TYPE": "U", "NORAD_CAT_ID": 38755, "ELEMENT_SET_NO": 999, "REV_AT_EPOCH": 70530, "BSTAR": 0.00012445, "MEAN_MOTION_DOT": 5.34e-06, "MEAN_MOTION_DDOT": 0}, "tle": {"line1": "1 38755U 12047A   25342.82796333  .00000534  00000+0  12445-3 0  9999", "line2": "2 38755  98.1576  47.6844 0001093  96.1131 264.0193 14.58597131705307"}}, "geometry": {"type": "Point", "coordinates": [48.93322578396021, -5.876438072472975]}}, {"type": "Feature", "properties": {"norad_id": 39019, "name": "PLEIADES 1B", "group": "resource", "lat": -71.56253220971047, "lon": -149.61405578486364, "alt_km": 706.0397282515378, "timestamp": "2025-12-09T05:43:20.384667+00:00", "meta": {"OBJECT_NAME": "PLEIADES 1B", "OBJECT_ID": "2012-068A", "EPOCH": "2025-12-08T20:19:54.682752", "MEAN_MOTION": 14.58546648, "ECCENTRICITY": 0.0001254, "INCLINATION": 98.1798, "RA_OF_ASC_NODE": 55.5604, "ARG_OF_PERICENTER": 80.67, "MEAN_ANOMALY": 279.4641, "EPHEMERIS_TYPE": 0, "CLASSIFICATION_TYPE": "U", "NORAD_CAT_ID": 39019, "ELEMENT_SET_NO": 999, "REV_AT_EPOCH": 69310, "BSTAR": 0.00012821, "MEAN_MOTION_DOT": 5.5e-06, "MEAN_MOTION_DDOT": 0}, "tle": {"line1": "1 39019U 12068A   25342.84716068  .00000550  00000+0  12821-3 0  9991", "line2": "2 39019  98.1798  55.5604 0001254  80.6700 279.4641 14.58546648693107"}}, "geometry": {"type": "Point", "coordinates": [-149.61405578486364, -71.56253220971047]}}, {"type": "Feature", "properties": {"norad_id": 39030, "name": "GOKTURK 2", "group": "resource", "lat": -75.9687815177591, "lon": -27.66059159430022, "alt_km": 652.1962168654327, "timestamp": "2025-12-09T05:43:20.384677+00:00", "meta": {"OBJECT_NAME": "GOKTURK 2", "OBJECT_ID": "2012-073A", "EPOCH": "2025-12-08T20:24:59.153760", "MEAN_MOTION": 14.75282552, "ECCENTRICITY": 9.06e-05, "INCLINATION": 97.6889, "RA_OF_ASC_NODE": 184.6951, "ARG_OF_PERICENTER": 96.57, "MEAN_ANOMALY": 263.5613, "EPHEMERIS_TYPE": 0, "CLASSIFICATION_TYPE": "U", "NORAD_CAT_ID": 39030, "ELEMENT_SET_NO": 999, "REV_AT_EPOCH": 69644, "BSTAR": 0.00015484, "MEAN_MOTION_DOT": 1.001e-05, "MEAN_MOTION_DDOT": 0}, "tle": {"line1": "1 39030U 12073A   25342.85068465  .00001001  00000+0  15484-3 0  9992", "line2": "2 39030  97.6889 184.6951 0000906  96.5700 263.5613 14.75282552696446"}}, "geometry": {"type": "Point", "coordinates": [-27.66059159430022, -75.9687815177591]}}, {"type": "Feature", "properties": {"norad_id": 39084, "name": "LANDSAT 8", "group": "resource", "lat": 78.20626278228866, "lon": 7.6336484445492365, "alt_km": 694.4099982714561, "timestamp": "2025-12-09T05:43:20.384688+00:00", "meta": {"OBJECT_NAME": "LANDSAT 8", "OBJECT_ID": "2013-008A", "EPOCH": "2025-12-08T19:27:40.654944", "MEAN_MOTION": 14.57108818, "ECCENTRICITY": 0.0001124, "INCLINATION": 98.2076, "RA_OF_ASC_NODE": 50.9423, "ARG_OF_PERICENTER": 86.795, "MEAN_ANOMALY": 273.3377, "EPHEMERIS_TYPE": 0, "CLASSIFICATION_TYPE": "U", "NORAD_CAT_ID": 39084, "ELEMENT_SET_NO": 999, "REV_AT_EPOCH": 67017, "BSTAR": 0.00020082, "MEAN_MOTION_DOT": 8.6e-06, "MEAN_MOTION_DDOT": 0}, "tle": {"line1": "1 39084U 13008A   25342.81088721  .00000860  00000+0  20082-3 0  9995", "line2": "2 39084  98.2076  50.9423 0001124  86.7950 273.3377 14.57108818670170"}}, "geometry": {"type": "Point", "coordinates": [7.6336484445492365, 78.20626278228866]}}, {"type": "Feature", "properties": {"norad_id": 39086, "name": "SARAL", "group": "resource", "lat": 13.389317924538291, "lon": 165.16204306253607, "alt_km": 783.9636041344638, "timestamp": "2025-12-09T05:43:20.384699+00:00", "meta": {"OBJECT_NAME": "SARAL", "OBJECT_ID": "2013-009A", "EPOCH": "2025-12-08T19:36:10.683648", "MEAN_MOTION": 14.32755226, "ECCENTRICITY": 0.0002787, "INCLINATION": 98.5504, "RA_OF_ASC_NODE": 166.7984, "ARG_OF_PERICENTER": 116.1399, "MEAN_ANOMALY": 244.0071, "EPHEMERIS_TYPE": 0, "CLASSIFICATION_TYPE": "U", "NORAD_CAT_ID": 39086, "ELEMENT_SET_NO": 999, "REV_AT_EPOCH": 66834, "BSTAR": 0.00011695, "MEAN_MOTION_DOT": 2.75e-06, "MEAN_MOTION_DDOT": 0}, "tle": {"line1": "1 39086U 13009A   25342.81679032  .00000275  00000+0  11695-3 0  9999", "line2": "2 39086  98.5504 166.7984 0002787 116.1399 244.0071 14.32755226668346"}}, "geometry": {"type": "Point", "coordinates": [165.16204306253607, 13.389317924538291]}}, {"type": "Feature", "properties": {"norad_id": 39150, "name": "GAOFEN-1", "group": "resource", "lat": -39.07371626354969, "lon": 60.46026953990312, "alt_km": 659.0488539489934, "timestamp": "2025-12-09T05:43:20.384709+00:00", "meta": {"OBJECT_NAME": "GAOFEN-1", "OBJECT_ID": "2013-018A", "EPOCH": "2025-12-08T20:08:34.993824", "MEAN_MOTION": 14.76524429, "ECCENTRICITY": 0.0017924, "INCLINATION": 97.933, "RA_OF_ASC_NODE": 53.5675, "ARG_OF_PERICENTER": 155.0714, "MEAN_ANOMALY": 205.1366, "EPHEMERIS_TYPE": 0, "CLASSIFICATION_TYPE": "U", "NORAD_CAT_ID": 39150, "ELEMENT_SET_NO": 999, "REV_AT_EPOCH": 68015, "BSTAR": 0.00023675, "MEAN_MOTION_DOT": 1.603e-05, "MEAN_MOTION_DDOT": 0}, "tle": {"line1": "1 39150U 13018A   25342.83929391  .00001603  00000+0  23675-3 0  9996", "line2": "2 39150  97.9330  53.5675 0017924 155.0714 205.1366 14.76524429680155"}}, "geometry": {"type": "Point", "coordinates": [60.46026953990312, -39.07371626354969]}}, {"type": "Feature", "properties": {"norad_id": 39160, "name": "VNREDSAT 1", "group": "resource", "lat": 10.60185722942586, "lon": -139.86754178772952, "alt_km": 678.9099713598735, "timestamp": "2025-12-09T05:43:20.384720+00:00", "meta": {"OBJECT_NAME": "VNREDSAT 1", "OBJECT_ID": "2013-021B", "EPOCH": "2025-12-08T20:45:22.017888", "MEAN_MOTION": 14.64913618, "ECCENTRICITY": 0.0001352, "INCLINATION": 97.9375, "RA_OF_ASC_NODE": 38.2755, "ARG_OF_PERICENTER": 77.8391, "MEAN_ANOMALY": 282.2964, "EPHEMERIS_TYPE": 0, "CLASSIFICATION_TYPE": "U", "NORAD_CAT_ID": 39160, "ELEMENT_SET_NO": 999, "REV_AT_EPOCH": 67242, "BSTAR": 0.00019468, "MEAN_MOTION_DOT": 9.95e-06, "MEAN_MOTION_DDOT": 0}, "tle": {"line1": "1 39160U 13021B   25342.86483817  .00000995  00000+0  19468-3 0  9990", "line2": "2 39160  97.9375  38.2755 0001352  77.8391 282.2964 14.64913618672424"}}, "geometry": {"type": "Point", "coordinates": [-139.86754178772952, 10.60185722942586]}}, {"type": "Feature", "properties": {"norad_id": 39227, "name": "ARIRANG-5 (KOMPSAT-5)", "group": "resource", "lat": 68.96612558847218, "lon": 7.9509624546473034, "alt_km": 544.287579879664, "timestamp": "2025-12-09T05:43:20.384731+00:00", "meta": {"OBJECT_NAME": "ARIRANG-5 (KOMPSAT-5)", "OBJECT_ID": "2013-042A", "EPOCH": "2025-12-08T19:39:36.192960", "MEAN_MOTION": 15.04533216, "ECCENTRICITY": 0.0003872, "INCLINATION": 97.6144, "RA_OF_ASC_NODE": 167.1799, "ARG_OF_PERICENTER": 67.8766, "MEAN_ANOMALY": 292.287, "EPHEMERIS_TYPE": 0, "CLASSIFICATION_TYPE": "U", "NORAD_CAT_ID": 39227, "ELEMENT_SET_NO": 999, "REV_AT_EPOCH": 67523, "BSTAR": 0.00027751, "MEAN_MOTION_DOT": 3.829e-05, "MEAN_MOTION_DDOT": 0}, "tle": {"line1": "1 39227U 13042A   25342.81916890  .00003829  00000+0  27751-3 0  9997", "line2": "2 39227  97.6144 167.1799 0003872  67.8766 292.2870 15.04533216675239"}}, "geometry": {"type": "Point", "coordinates": [7.9509624546473034, 68.96612558847218]}}, {"type": "Feature", "properties": {"norad_id": 39418, "name": "SKYSAT-A", "group": "resource", "lat": 33.156622395279626, "lon": 28.675322447833622, "alt_km": 540.9771707345972, "timestamp": "2025-12-09T05:43:20.384742+00:00", "meta": {"OBJECT_NAME": "SKYSAT-A", "OBJECT_ID": "2013-066C", "EPOCH": "2025-12-08T15:16:31.471104", "MEAN_MOTION": 15.11556406, "ECCENTRICITY": 0.0020672, "INCLINATION": 97.4108, "RA_OF_ASC_NODE": 32.9696, "ARG_OF_PERICENTER": 251.8865, "MEAN_ANOMALY": 108.0114, "EPHEMERIS_TYPE": 0, "CLASSIFICATION_TYPE": "U", "NORAD_CAT_ID": 39418, "ELEMENT_SET_NO": 999, "REV_AT_EPOCH": 65968, "BSTAR": 0.00036753, "MEAN_MOTION_DOT": 6.202e-05, "MEAN_MOTION_DDOT": 0}, "tle": {"line1": "1 39418U 13066C   25342.63647536  .00006202  00000+0  36753-3 0  9993", "line2": "2 39418  97.4108  32.9696 0020672 251.8865 108.0114 15.11556406659686"}}, "geometry": {"type": "Point", "coordinates": [28.675322447833622, 33.156622395279626]}}, {"type": "Feature", "properties": {"norad_id": 39419, "name": "DUBAISAT-2", "group": "resource", "lat": -36.042640174803495, "lon": 148.29335609697318, "alt_km": 551.2786707464902, "timestamp": "2025-12-09T05:43:20.384753+00:00", "meta": {"OBJECT_NAME": "DUBAISAT-2", "OBJECT_ID": "2013-066D", "EPOCH": "2025-12-08T20:48:16.215840", "MEAN_MOTION": 15.08295732, "ECCENTRICITY": 0.0011021, "INCLINATION": 97.4445, "RA_OF_ASC_NODE": 333.3932, "ARG_OF_PERICENTER": 335.0133, "MEAN_ANOMALY": 25.0561, "EPHEMERIS_TYPE": 0, "CLASSIFICATION_TYPE": "U", "NORAD_CAT_ID": 39419, "ELEMENT_SET_NO": 999, "REV_AT_EPOCH": 65768, "BSTAR": 0.00040278, "MEAN_MOTION_DOT": 6.195e-05, "MEAN_MOTION_DDOT": 0}, "tle": {"line1": "1 39419U 13066D   25342.86685435  .00006195  00000+0  40278-3 0  9997", "line2": "2 39419  97.4445 333.3932 0011021 335.0133  25.0561 15.08295732657683"}}, "geometry": {"type": "Point", "coordinates": [148.29335609697318, -36.042640174803495]}}]}